[
    {
        "Altitude(m)": 607911.0128104439,
        "Argument of Periapsis(deg)": 0.0,
        "Eccentricity": 0.0,
        "Inclination(deg)": 60.0,
        "Latitude(deg)": -14.292965498356427,
        "Longitude(deg)": -11.557322503829782,
        "Mean Anomaly(deg)": -163.6364,
        "RAAN(deg)": 260.0,
        "Satellite Name": "Test1 1156",
        "Satellite Number": 1156,
        "Semi-Major Axis(m)": 6980739.136638005,
        "Time(s)": 0
    },
    {
        "Altitude(m)": 608060.2464229655,
        "Argument of Periapsis(deg)": 0.00010418945913296404,
        "Eccentricity": 0.0,
        "Inclination(deg)": 60.0,
        "Latitude(deg)": -14.826626299310798,
        "Longitude(deg)": -11.26871186624228,
        "Mean Anomaly(deg)": -163.01629385453816,
        "RAAN(deg)": 259.99957995086027,
        "Satellite Name": "Test1 1156",
        "Satellite Number": 1156,
        "Semi-Major Axis(m)": 6980739.136638005,
        "Time(s)": 10
    }
]